#dP2022  5 16  0  0  0.00000000      96 __u+U ITR00 FIT  IAC
## 2210  86400.00000000   900.00000000 59715 0.0000000000000
+  116   C06C07C08C09C10C11C12C13C14C16C19C20C21C22C23C24C25
+        C26C27C28C29C30C32C33C34C35C36C37C38C39C40C41C42C43
+        C44C45C46E02E03E04E05E07E08E09E10E11E12E13E14E15E18
+        E19E21E24E25E26E27E30E31E33E34E36G01G02G03G04G05G06
+        G07G08G09G10G11G12G13G14G15G16G17G18G19G20G21G22G23
+        G24G25G26G27G28G29G30G31G32J02J03R01R02R03R04R05R07
+        R08R09R11R12R13R14R15R17R18R19R20R21R22R24  0  0  0
++         0  0  0  0  0  0  0  0  0  0  0  0  0  0  0  0  0
++         0  0  0  0  0  0  0  0  0  0  0  0  0  0  0  0  0
++         0  0  0  0  0  0  0  0  0  0  0  0  0  0  0  0  0
++         0  0  0  0  0  0  0  0  0  0  0  0  0  0  0  0  0
++         0  0  0  0  0  0  0  0  0  0  0  0  0  0  0  0  0
++         0  0  0  0  0  0  0  0  0  0  0  0  0  0  0  0  0
++         0  0  0  0  0  0  0  0  0  0  0  0  0  0  0  0  0
%c M  cc GPS ccc cccc cccc cccc cccc ccccc ccccc ccccc ccccc
%c cc cc ccc ccc cccc cccc cccc cccc ccccc ccccc ccccc ccccc
%f  0.0000000  0.000000000  0.00000000000  0.000000000000000
%f  0.0000000  0.000000000  0.00000000000  0.000000000000000
%i    0    0    0    0      0      0      0      0         0
%i    0    0    0    0      0      0      0      0         0
/* INFORMATION & ANALYSIS CENTER (IAC)      ULTRA-RAPID DATA
/* S/V CLOCKS ARE ALIGNED TO GNSS TIME                      
/* G:C1WC2W R:C1PC2P E:C1XC5X C:C2IC6I J:C1CC2S             
/* PCV:IGS14_2196 OL/AL:FES2004  NONE     YN ORB:CoN CLK:CoN
*  2022 05 16  0 15  0.00000000
PC06 -15238.824664  38472.595350   7534.180726     -7.392804
PC07  -2670.787959  32762.907420  26491.063266   -171.537036
PC08 -14096.926333  20240.975102 -34229.626155    314.790642
PC09  -9490.638577  37591.329288  16299.404378   -791.185919
PC10   5048.319670  36085.436844  21870.744600    132.057322
PC11 -18300.949840   6819.796822  20000.149475    354.646706
PC12 -10573.020219 -12330.750344  22717.992379   -615.516466
PC13  -5171.937133  22381.147038 -35251.857076    -31.706571
PC14 -19139.334458  -3443.109835 -19965.262168    475.838963
PC16 -17119.940082  38122.145549   4631.873065    131.643332
PC19  14556.862160  -6609.908273  22904.908050    869.571823
PC20  20507.277155  11406.892094  15148.434566   -916.605688
PC21 -14426.974201 -23762.271838   2286.054831   -298.105670
PC22    -28.077064 -21552.649963  17715.211401   -970.087070
PC23  -9640.409133  15766.608124  20915.455067   -930.148736
PC24 -25841.724536  -4860.762368  -9386.318599   -964.943222
PC25 -24805.339932   8995.750605   9109.006562   -736.102860
PC26 -12807.400521 -13651.365690 -20717.464450    737.309013
PC27   4601.729147  20068.285549 -18853.764776    723.803682
PC28  -9446.909884  25887.554689  -4406.908421     67.207366
PC29  17724.177090 -17017.442673 -13245.058651    555.187886
PC30  16020.252249   2795.110256 -22691.112590    498.544031
PC32  14633.213034  23661.256054  -2269.336003   -963.343712
PC33 -14549.946549   6658.078175 -22850.483789   -965.875541
PC34 -16411.676408  -1752.381454  22482.507151   -402.682517
PC35   9227.030406 -26135.905960   3397.615396    275.809600
PC36  25265.747665  -8095.671021  -8624.565134   -964.309297
PC37  11196.622460  14350.368659  21163.841464   -911.695472
PC38 -21700.539748  21031.679652 -29439.086592    232.414121
PC39 -18923.068160  37510.588076  -2230.097425     34.979622
PC40  -5994.670996  28409.608993  30620.186411    269.376804
PC41   -256.859584  21344.527148 -17921.373585   -965.985165
PC42 -20524.258420 -12310.662415 -14282.042352   -970.002959
PC43 -17966.740422  16326.355623  13726.453377   -923.887119
PC44  -5206.509508 -20128.282189  18615.046613    660.870574
PC45   9306.030192 -15705.422379 -21098.382457    758.039298
PC46  26424.551271   3813.237147   8064.079064   -326.653632
PE02  14061.302958  19577.881109  17166.864330    299.416441
PE03   7464.095557  27741.194120   7169.084862   -558.658073
PE04 -16157.149296 -12771.421616 -21247.007567  -1028.774408
PE05  -5802.655362  26684.700124 -11416.356176   -181.267333
PE07  15509.149215 -10116.167027  23102.365068   -668.880939
PE08  16146.387554  12444.217452  21473.266822   -529.761805
PE09 -15287.909980  10315.487059 -23146.254131   -519.610458
PE10 -24874.153629   5863.937459  14921.460537   -513.258800
PE11 -25648.136807  13688.759756   5493.637291   3658.298207
PE12 -20279.502785  -2703.113066  21375.768267   4611.855684
PE13  25714.442919 -13298.304782  -6203.911594    428.703650
PE14  16813.222458  16963.664307 -22047.446662  -1836.486342
PE15  20172.553593   2709.111267 -21495.426232    745.431238
PE18 -13678.010692  -8026.436003  17413.385227  -1444.380095
PE19  -5824.844362 -28604.875502  -4889.823272  -4731.014939
PE21   5720.964461 -15679.101553 -24448.609099   -734.405738
PE24 -24049.983511   1551.428991  17186.653057   -617.066410
PE25  -6021.603144  15547.074177  24461.658712   -574.073104
PE26  15350.170892 -21488.809129  13373.648597  -1149.108107
PE27  23329.905095  -2564.926289 -18029.793846   -299.659664
PE30  26756.316933  12643.151233   -120.630944   -513.527179
PE31 -27065.943564 -11941.242535   1066.497220   -496.685764
PE33  -2745.657185 -17053.617310  24038.619690   -456.597553
PE34   2997.093942  16942.676790 -24097.052606   -517.243891
PE36 -16107.406447  21378.499998 -12625.660852   -374.199032
PG01  -5095.625188  17266.560185 -19698.429050    362.146060
PG02  21242.040416 -15925.697478   2843.082413   -653.241875
PG03   5194.094726  18231.022855 -18759.352308   -245.593101
PG04   -915.420600  26470.104359   1199.401916   -166.876871
PG05  10731.470160 -11148.174396  21437.599392    -81.984964
PG06  23648.159699  -3949.871148 -11456.368313    304.888622
PG07  12059.125712  10940.272352  21457.066547    322.098259
PG08  -5895.874859  24387.868054   8108.896287    -68.172721
PG09   7440.752723  23003.085078  10895.421185   -336.436771
PG10 -23827.466040 -11221.101962  -4346.642061   -416.004974
PG11  23120.921115 -12787.939211   2608.644625    -24.499213
PG12    213.262963 -17218.883217 -20519.772632   -216.058416
PG13  12921.548158 -18182.687851  14132.905424    312.280127
PG14  23166.340862  12605.637554  -3530.313769   -108.444158
PG15   2706.013420 -25236.250529   6850.501722    -60.946554
PG16 -15812.687652   5636.965353  20418.513900   -501.191679
PG17  13329.217275   8482.704744 -20908.914296    613.106313
PG18 -10776.701024 -11065.076341  21611.005307    169.080187
PG19  15041.963872    251.445409 -22140.269502    157.833382
PG20  19648.311895  -5118.093563  17003.563946    514.956109
PG21 -14282.269858  18537.693969 -11246.296493    161.094012
PG22 -15209.203969   3262.737839 -21091.241503    259.760434
PG23 -19941.472302 -16511.378753   6160.860639    -22.120689
PG24   7886.594050 -19424.633668 -16362.734427    240.372575
PG25 -14273.577612 -18991.707924 -12440.329392    325.190573
PG26 -22979.374324  -1324.277500  13431.102883    205.881056
PG27 -12382.126651  15270.624773  17452.013575    203.431938
PG28  22490.034628   7195.604065 -11412.687282    357.232591
PG29  -4841.799730 -23643.227471  10963.755149   -514.035727
PG30  19887.754365   4122.182573  17327.634184   -528.030739
PG31 -24694.390119   5279.304999  -9088.227334   -177.772673
PG32 -14800.079351  -5559.138203 -21220.016829   -128.002239
PJ02 -26996.295363  22108.190590  28679.361625     -0.141240
PJ03 -32689.753835  26145.440195  10050.505066     -2.178350
PR01  -9386.732540   5967.387973 -22948.618124      8.753113
PR02   2237.004196  21350.196182 -13682.406404    518.491615
PR03  11619.933903  22451.763951   3237.841478     56.709763
PR04  14124.723459  11164.532902  18099.607464    141.695816
PR05   9003.936018  -6311.787536  23033.772571     92.940505
PR07 -11823.683411 -22295.997051  -3824.116848     35.132499
PR08 -14214.658298 -11034.791338 -18027.341912    -65.147402
PR09   4397.590609 -10846.765913 -22653.489201     55.248847
PR11 -24780.113091  -4258.125976  -4244.249460     38.909445
PR12 -20951.748630   4540.748157  13860.625349     18.463832
PR13  -5752.473706  10337.451659  22583.383094    -22.353739
PR14  14446.107761  10320.136849  18335.187181     25.695624
PR15  24929.247572   4212.683072   3419.682346     96.098728
PR17   1719.655904  13951.563595 -21292.120850    526.390607
PR18  12915.285295   -782.567114 -21985.628987    116.985933
PR19  17746.622888 -13727.540849 -12142.702155   -189.141995
PR20  12117.432836 -20979.125087   8056.724398    -70.648047
PR21  -2757.301093 -12775.229499  21894.388426   -301.556497
PR22 -13230.182216   1400.929247  21720.616468   -183.398294
PR24 -11041.328187  21317.543657  -8626.025800     93.930849
EOF
